      2.10          N: GNSS NAV DATA                        RINEX VERSION / TYPE
fic2rin                                 10/24/2023 00:18:22 PGM / RUN BY / DATE
                                                            END OF HEADER
2  23 10 23  2  0  0.0 -.538619700819D-03  .477484718431D-11  .000000000000D+00
     .580000000000D+02  .653437500000D+02  .432446584565D-08  .149953927682D+01
     .288896262646D-05  .160992672900D-01  .566057860851D-05  .515374211884D+04
     .936000000000D+05  .255182385445D-06 -.459812400118D+00 -.346451997757D-06
     .967815884799D+00  .269656250000D+03 -.132752804659D+01 -.807605068564D-08
    -.500020827875D-11  .100000000000D+01  .228500000000D+04  .000000000000D+00
     .240000000000D+01  .000000000000D+00 -.176951289177D-07  .580000000000D+02
     .864000000000D+05  .400000000000D+01
1  23 10 23  2  0  0.0  .163473188877D-03 -.341060513165D-12  .000000000000D+00
     .280000000000D+02  .661250000000D+02  .384587448182D-08 -.114156906865D+01
     .348314642906D-05  .128932599910D-01  .548735260963D-05  .515363817024D+04
     .936000000000D+05  .227242708206D-06 -.357982461578D+00  .229105353355D-06
     .990662045302D+00  .290531250000D+03  .991790601751D+00 -.797318925819D-08
     .339299847486D-10  .100000000000D+01  .228500000000D+04  .000000000000D+00
     .240000000000D+01  .630000000000D+02  .512227416039D-08  .280000000000D+02
     .864000000000D+05  .400000000000D+01
3  23 10 23  2  0  0.0 -.622309744358D-04  .236468622461D-10  .000000000000D+00
     .440000000000D+02 -.632187500000D+02  .409159900295D-08 -.234168275685D+01
    -.309012830257D-05  .509281817358D-02  .389479100704D-05  .515358135605D+04
     .936000000000D+05 -.372529029846D-08  .670868084417D+00 -.204890966415D-07
     .981130313319D+00  .316062500000D+03  .112033699248D+01 -.804069206996D-08
    -.446447167745D-10  .100000000000D+01  .228500000000D+04  .000000000000D+00
     .240000000000D+01  .000000000000D+00  .186264514923D-08  .440000000000D+02
     .864000000000D+05  .400000000000D+01
5  23 10 23  2  0  0.0 -.147538259625D-03 -.147792889038D-11  .000000000000D+00
     .930000000000D+02 -.380937500000D+02  .452375986133D-08  .132691330354D+01
    -.214762985706D-05  .594854156952D-02  .341609120369D-05  .515374482346D+04
     .936000000000D+05  .149011611938D-07  .622367077733D+00 -.577419996262D-07
     .968167519103D+00  .322843750000D+03  .124014300944D+01 -.831427489435D-08
    -.721458623076D-10  .100000000000D+01  .228500000000D+04  .000000000000D+00
     .240000000000D+01  .000000000000D+00 -.111758708954D-07  .930000000000D+02
     .864000000000D+05  .400000000000D+01
25 23 10 23 18  0  0.0  .474102795124D-03  .181898940355D-11  .000000000000D+00
     .320000000000D+02  .275937500000D+02  .525164732362D-08 -.594499651342D+00
     .146031379700D-05  .113230771385D-01  .553019344807D-05  .515365457535D+04
     .151200000000D+06 -.614672899246D-07 -.248743172854D+01  .173225998878D-06
     .952051908212D+00  .267031250000D+03  .105399535310D+01 -.857107130524D-08
    -.182864759908D-09  .100000000000D+01  .228500000000D+04  .000000000000D+00
     .240000000000D+01  .000000000000D+00  .558793544769D-08  .320000000000D+02
     .144000000000D+06  .400000000000D+01
24 23 10 23 18  0  0.0 -.353537034243D-03 -.954969436862D-11  .000000000000D+00
     .179000000000D+03 -.143750000000D+01  .525950479377D-08  .128682058383D+01
     .782310962677D-07  .147075380664D-01  .111907720566D-04  .515363504410D+04
     .151200000000D+06 -.249594449997D-06  .267178567615D+01  .193715095520D-06
     .934223900507D+00  .152656250000D+03  .934115874247D+00 -.845713798803D-08
     .278225874939D-09  .100000000000D+01  .228500000000D+04  .000000000000D+00
     .240000000000D+01  .000000000000D+00  .232830643654D-08  .179000000000D+03
     .144000000000D+06  .400000000000D+01
20 23 10 23 18  0  0.0  .405322294682D-03 -.193267624127D-11  .000000000000D+00
     .125000000000D+03 -.390625000000D+01  .495770650838D-08  .179374127067D+01
    -.294297933578D-06  .411088613328D-02  .278092920780D-05  .515364118767D+04
     .151200000000D+06 -.949949026108D-07  .496857024684D+00  .428408384323D-07
     .950760069625D+00  .317625000000D+03 -.280693759551D+01 -.862107338803D-08
     .166792661870D-09  .100000000000D+01  .228500000000D+04  .000000000000D+00
     .240000000000D+01  .000000000000D+00 -.838190317154D-08  .125000000000D+03
     .144000000000D+06  .400000000000D+01
18 23 10 23 18  0  0.0 -.457727815956D-03 -.114823706099D-10  .000000000000D+00
     .180000000000D+02  .803750000000D+02  .399588073019D-08  .106310013976D+01
     .426359474659D-05  .380972528365D-02  .784732401371D-05  .515365644646D+04
     .151200000000D+06 -.204890966415D-07 -.359616726863D+00  .633299350739D-07
     .974569095012D+00  .234125000000D+03 -.306843304940D+01 -.795461705602D-08
     .220009164265D-09  .100000000000D+01  .228500000000D+04  .000000000000D+00
     .240000000000D+01  .000000000000D+00 -.838190317154D-08  .786000000000D+03
     .144000000000D+06  .400000000000D+01
28 23 10 23 18  0  0.0 -.310731120408D-04 -.738964445191D-11  .000000000000D+00
     .710000000000D+02  .768750000000D+01  .453554606656D-08 -.111236523733D+01
     .424683094025D-06  .744915334508D-03  .104177743196D-04  .515376915550D+04
     .151200000000D+06 -.298023223877D-07  .272942115064D+01 -.391155481339D-07
     .961767875710D+00  .177562500000D+03  .156354683479D+01 -.788997150613D-08
     .253224833545D-09  .100000000000D+01  .228500000000D+04  .000000000000D+00
     .240000000000D+01  .000000000000D+00 -.977888703346D-08  .839000000000D+03
     .144000000000D+06  .400000000000D+01
